ONEWEB-0157             
1 48055U 21025P   26183.84629609 -.00000132  00000+0 -39681-3 0  9993
2 48055  87.8975 317.1062 0002256 101.4753 258.6630 13.13470370255623
ONEWEB-0162             
1 48056U 21025Q   26183.82246037  .00000321  00000+0  84327-3 0  9997
2 48056  87.8974 317.1115 0001947  94.2193 265.9159 13.13469032255591
ONEWEB-0155             
1 48057U 21025R   26183.82936243  .00000251  00000+0  65238-3 0  9995
2 48057  87.8976 317.1065 0001996 103.2350 256.9002 13.13468553255738
ONEWEB-0149             
1 48058U 21025S   26183.85136943 -.00000259  00000+0 -74337-3 0  9998
2 48058  87.8976 317.1059 0001957  92.8699 267.2654 13.13468828255540
ONEWEB-0148             
1 48059U 21025T   26183.81412608  .00000300  00000+0  78630-3 0  9995
2 48059  87.8972 317.1194 0002200  85.4920 274.6460 13.13469178255663
ONEWEB-0160             
1 48060U 21025U   26183.83104913  .00000230  00000+0  59534-3 0  9990
2 48060  87.8974 317.1121 0001177  99.8022 260.3240 13.13468293255611
ONEWEB-0163             
1 48061U 21025V   26183.81581743  .00000303  00000+0  79462-3 0  9992
2 48061  87.8977 317.1105 0002173 100.9285 259.2089 13.13469174255739
ONEWEB-0159             
1 48062U 21025W   26183.80735407  .00000105  00000+0  25243-3 0  9998
2 48062  87.8981 317.1062 0002130 102.1853 257.9515 13.13469758255653
ONEWEB-0164             
1 48063U 21025X   26183.78872509 -.00000292  00000+0 -83409-3 0  9998
2 48063  87.8981 317.1162 0001805 100.2660 259.8673 13.13469100255633
ONEWEB-0167             
1 48064U 21025Y   26183.81667354  .00000286  00000+0  74744-3 0  9996
2 48064  87.8970 317.1191 0002235 114.6516 245.4846 13.13469645255627
ONEWEB-0166             
1 48065U 21025Z   26183.83952056  .00000049  00000+0  10022-3 0  9991
2 48065  87.8980 317.0874 0001932  97.3804 262.7545 13.13468659255707
ONEWEB-0151             
1 48066U 21025AA  26183.84120336  .00000023  00000+0  27198-4 0  9996
2 48066  87.8973 317.1027 0001871 102.9511 257.1828 13.13468686255646
ONEWEB-0170             
1 48067U 21025AB  26183.84966047 -.00000189  00000+0 -55206-3 0  9999
2 48067  87.8974 317.1031 0001477 112.3344 247.7942 13.13468141255608
ONEWEB-0168             
1 48068U 21025AC  26183.83443355  .00000164  00000+0  41306-3 0  9998
2 48068  87.8977 317.1067 0001950 100.7194 259.4155 13.13467837255619
ONEWEB-0173             
1 48069U 21025AD  26183.82597503  .00000282  00000+0  73802-3 0  9990
2 48069  87.8975 317.1090 0002202 104.1669 255.9705 13.13468551255852
ONEWEB-0171             
1 48070U 21025AE  26183.78703064 -.00000301  00000+0 -85989-3 0  9991
2 48070  87.8969 317.1246 0001873 102.2547 257.8792 13.13469074255664
ONEWEB-0172             
1 48071U 21025AF  26183.84290297 -.00000070  00000+0 -22743-3 0  9990
2 48071  87.8977 317.1043 0001990 103.6952 256.4399 13.13469200256563
ONEWEB-0174             
1 48072U 21025AG  26183.82428012 -.00002291  00000+0 -63081-2 0  9993
2 48072  87.8974 317.1071 0002085 100.9872 259.1492 13.13481857255889
ONEWEB-0175             
1 48073U 21025AH  26183.62621269 -.00000223  00000+0 -64465-3 0  9992
2 48073  87.8980 317.1316 0001835 109.6802 250.4525 13.13469205255514
ONEWEB-0177             
1 48074U 21025AJ  26183.79042289 -.00000266  00000+0 -76339-3 0  9990
2 48074  87.8976 317.1169 0002139  97.7457 262.3915 13.13469777255729
ONEWEB-0178             
1 48075U 21025AK  26183.80919352  .00000224  00000+0  57806-3 0  9997
2 48075  87.8964 317.1242 0002011 106.6051 253.5299 13.13470537255776
ONEWEB-0108             
1 48076U 21025AL  26183.84459172 -.00000082  00000+0 -25984-3 0  9997
2 48076  87.8979 317.0979 0001779  92.5464 267.5869 13.13468395255700
ONEWEB-0169             
1 48077U 21025AM  26183.80057898 -.00000059  00000+0 -19578-3 0  9999
2 48077  87.8975 317.1139 0002007  96.0302 264.1055 13.13469230254350
ONEWEB-0176             
1 48210U 21031A   26183.70701236 -.00000196  00000+0 -56453-3 0  9991
2 48210  87.8975 286.6069 0002053 103.5640 256.5719 13.14502116250351
ONEWEB-0184             
1 48211U 21031B   26183.83229291 -.00000008  00000+0 -55230-4 0  9997
2 48211  87.8979 286.5830 0002213 121.6792 238.4553 13.14501650250344
ONEWEB-0179             
1 48212U 21031C   26183.81864705  .00000335  00000+0  10375-3 0  9992
2 48212  87.8997 283.2106 0220021 205.8177 153.1907 14.25537645251271
ONEWEB-0180             
1 48213U 21031D   26183.83547223 -.00000109  00000+0 -32740-3 0  9999
2 48213  87.8982 286.5792 0002345 105.2264 254.9125 13.14502623250276
ONEWEB-0218             
1 48214U 21031E   26183.70543574 -.00000246  00000+0 -69890-3 0  9999
2 48214  87.8984 286.6046 0002505 119.9273 240.2106 13.14503294250410
ONEWEB-0209             
1 48215U 21031F   26183.54209446 -.00000139  00000+0 -40941-3 0  9996
2 48215  87.8971 286.6525 0002245  99.2252 260.9132 13.14502674250393
ONEWEB-0198             
1 48216U 21031G   26183.83085258  .00000043  00000+0  82185-4 0  9991
2 48216  87.8963 286.5930 0002390 106.6830 253.4562 13.14501827250540
