OBJECT_NAME,OBJECT_ID,EPOCH,MEAN_MOTION,ECCENTRICITY,INCLINATION,RA_OF_ASC_NODE,ARG_OF_PERICENTER,MEAN_ANOMALY,EPHEMERIS_TYPE,CLASSIFICATION_TYPE,NORAD_CAT_ID,ELEMENT_SET_NO,REV_AT_EPOCH,BSTAR,MEAN_MOTION_DOT,MEAN_MOTION_DDOT
ONEWEB-0157,2021-025P,2026-07-02T20:18:39.982176,13.13470370,.0002256,87.8975,317.1062,101.4753,258.6630,0,U,48055,999,25562,-.39681E-3,-.132E-5,0
ONEWEB-0162,2021-025Q,2026-07-02T19:44:20.575968,13.13469032,.0001947,87.8974,317.1115,94.2193,265.9159,0,U,48056,999,25559,.84327E-3,.321E-5,0
ONEWEB-0155,2021-025R,2026-07-02T19:54:16.913952,13.13468553,.0001996,87.8976,317.1065,103.2350,256.9002,0,U,48057,999,25573,.65238E-3,.251E-5,0
ONEWEB-0149,2021-025S,2026-07-02T20:25:58.318752,13.13468828,.0001957,87.8976,317.1059,92.8699,267.2654,0,U,48058,999,25554,-.74337E-3,-.259E-5,0
ONEWEB-0148,2021-025T,2026-07-02T19:32:20.493312,13.13469178,.00022,87.8972,317.1194,85.4920,274.6460,0,U,48059,999,25566,.7863E-3,.3E-5,0
ONEWEB-0160,2021-025U,2026-07-02T19:56:42.644832,13.13468293,.0001177,87.8974,317.1121,99.8022,260.3240,0,U,48060,999,25561,.59534E-3,.23E-5,0
ONEWEB-0163,2021-025V,2026-07-02T19:34:46.625952,13.13469174,.0002173,87.8977,317.1105,100.9285,259.2089,0,U,48061,999,25573,.79462E-3,.303E-5,0
ONEWEB-0159,2021-025W,2026-07-02T19:22:35.391648,13.13469758,.000213,87.8981,317.1062,102.1853,257.9515,0,U,48062,999,25565,.25243E-3,.105E-5,0
ONEWEB-0164,2021-025X,2026-07-02T18:55:45.847776,13.13469100,.0001805,87.8981,317.1162,100.2660,259.8673,0,U,48063,999,25563,-.83409E-3,-.292E-5,0
ONEWEB-0167,2021-025Y,2026-07-02T19:36:00.593856,13.13469645,.0002235,87.8970,317.1191,114.6516,245.4846,0,U,48064,999,25562,.74744E-3,.286E-5,0
ONEWEB-0166,2021-025Z,2026-07-02T20:08:54.576384,13.13468659,.0001932,87.8980,317.0874,97.3804,262.7545,0,U,48065,999,25570,.10022E-3,.49E-6,0
ONEWEB-0151,2021-025AA,2026-07-02T20:11:19.970304,13.13468686,.0001871,87.8973,317.1027,102.9511,257.1828,0,U,48066,999,25564,.27198E-4,.23E-6,0
ONEWEB-0170,2021-025AB,2026-07-02T20:23:30.664608,13.13468141,.0001477,87.8974,317.1031,112.3344,247.7942,0,U,48067,999,25560,-.55206E-3,-.189E-5,0
ONEWEB-0168,2021-025AC,2026-07-02T20:01:35.058720,13.13467837,.000195,87.8977,317.1067,100.7194,259.4155,0,U,48068,999,25561,.41306E-3,.164E-5,0
ONEWEB-0173,2021-025AD,2026-07-02T19:49:24.242592,13.13468551,.0002202,87.8975,317.1090,104.1669,255.9705,0,U,48069,999,25585,.73802E-3,.282E-5,0
ONEWEB-0171,2021-025AE,2026-07-02T18:53:19.447296,13.13469074,.0001873,87.8969,317.1246,102.2547,257.8792,0,U,48070,999,25566,-.85989E-3,-.301E-5,0
ONEWEB-0172,2021-025AF,2026-07-02T20:13:46.816608,13.13469200,.000199,87.8977,317.1043,103.6952,256.4399,0,U,48071,999,25656,-.22743E-3,-.7E-6,0
ONEWEB-0174,2021-025AG,2026-07-02T19:46:57.802368,13.13481857,.0002085,87.8974,317.1071,100.9872,259.1492,0,U,48072,999,25588,-.63081E-2,-.2291E-4,0
ONEWEB-0175,2021-025AH,2026-07-02T15:01:44.776416,13.13469205,.0001835,87.8980,317.1316,109.6802,250.4525,0,U,48073,999,25551,-.64465E-3,-.223E-5,0
ONEWEB-0177,2021-025AJ,2026-07-02T18:58:12.537696,13.13469777,.0002139,87.8976,317.1169,97.7457,262.3915,0,U,48074,999,25572,-.76339E-3,-.266E-5,0
ONEWEB-0178,2021-025AK,2026-07-02T19:25:14.320128,13.13470537,.0002011,87.8964,317.1242,106.6051,253.5299,0,U,48075,999,25577,.57806E-3,.224E-5,0
ONEWEB-0108,2021-025AL,2026-07-02T20:16:12.724608,13.13468395,.0001779,87.8979,317.0979,92.5464,267.5869,0,U,48076,999,25570,-.25984E-3,-.82E-6,0
ONEWEB-0169,2021-025AM,2026-07-02T19:12:50.023872,13.13469230,.0002007,87.8975,317.1139,96.0302,264.1055,0,U,48077,999,25435,-.19578E-3,-.59E-6,0
ONEWEB-0176,2021-031A,2026-07-02T16:58:05.867904,13.14502116,.0002053,87.8975,286.6069,103.5640,256.5719,0,U,48210,999,25035,-.56453E-3,-.196E-5,0
ONEWEB-0184,2021-031B,2026-07-02T19:58:30.107424,13.14501650,.0002213,87.8979,286.5830,121.6792,238.4553,0,U,48211,999,25034,-.5523E-4,-.8E-7,0
ONEWEB-0179,2021-031C,2026-07-02T19:38:51.105120,14.25537645,.0220021,87.8997,283.2106,205.8177,153.1907,0,U,48212,999,25127,.10375E-3,.335E-5,0
ONEWEB-0180,2021-031D,2026-07-02T20:03:04.800672,13.14502623,.0002345,87.8982,286.5792,105.2264,254.9125,0,U,48213,999,25027,-.3274E-3,-.109E-5,0
ONEWEB-0218,2021-031E,2026-07-02T16:55:49.647936,13.14503294,.0002505,87.8984,286.6046,119.9273,240.2106,0,U,48214,999,25041,-.6989E-3,-.246E-5,0
ONEWEB-0209,2021-031F,2026-07-02T13:00:36.961344,13.14502674,.0002245,87.8971,286.6525,99.2252,260.9132,0,U,48215,999,25039,-.40941E-3,-.139E-5,0
ONEWEB-0198,2021-031G,2026-07-02T19:56:25.662912,13.14501827,.000239,87.8963,286.5930,106.6830,253.4562,0,U,48216,999,25054,.82185E-4,.43E-6,0
